IRIDIUM 116             
1 43072U 17083C   23257.66456941  .00000354  00000+0  11936-3 0  9999
2 43072  86.4008  22.6583 0002060  98.6033 261.5396 14.34217770299904
IRIDIUM 130             
1 43073U 17083D   23257.84216976  .00000429  00000+0  14600-3 0  9996
2 43073  86.4016  22.7615 0002199  95.0895 265.0552 14.34218733299870
IRIDIUM 151             
1 43074U 17083E   23257.88656554  .00000298  00000+0  99353-4 0  9994
2 43074  86.4009  22.6003 0002117  99.1105 261.0331 14.34217022299907
IRIDIUM 134             
1 43075U 17083F   23257.85485112  .00000017  00000+0 -85444-6 0  9990
2 43075  86.4013  22.6080 0002093  90.2807 269.8628 14.34217559299867
IRIDIUM 137             
1 43076U 17083G   23257.86753692  .00000432  00000+0  14711-3 0  9999
2 43076  86.4015  22.6758 0001942 101.1398 259.0016 14.34219208299934
IRIDIUM 141             
1 43077U 17083H   23257.86119306  .00000400  00000+0  13569-3 0  9993
2 43077  86.4009  22.5656 0002278  96.5580 263.5875 14.34219696299931
IRIDIUM 153             
1 43078U 17083J   23257.81337598  .00000479  00000+0  16387-3 0  9991
2 43078  86.4032 351.0614 0002519  92.7247 267.4237 14.34219892301036
IRIDIUM 131             
1 43079U 17083K   23257.84851333  .00000424  00000+0  14418-3 0  9996
2 43079  86.4015  22.6897 0002205  94.2383 265.9065 14.34218641299862
